IRIDIUM 7               
1 24793U 97020B   25025.52379288  .00000863  00000+0  29226-3 0  9991
2 24793  86.3933 236.6471 0001781  94.7002 265.4398 14.35731495451646
IRIDIUM 5               
1 24795U 97020D   25025.38712425  .00009096  00000+0  79060-3 0  9999
2 24795  86.3943 149.4662 0111562 290.5528  68.3757 14.92109316464186
IRIDIUM 4               
1 24796U 97020E   25025.52756388  .00000787  00000+0  26084-3 0  9998
2 24796  86.3932 233.6153 0001860  87.8344 272.3067 14.36641253451982
IRIDIUM 914             
1 24836U 97030A   25025.51036705  .00001012  00000+0  31138-3 0  9995
2 24836  86.3908 242.6584 0001953  37.0428 323.0905 14.40620270586582
IRIDIUM 16              
1 24841U 97030F   25025.18745861  .00000966  00000+0  31012-3 0  9992
2 24841  86.4006 265.3575 0002987 132.7479 227.3970 14.38483527446444
IRIDIUM 911             
1 24842U 97030G   25025.57315954  .00001282  00000+0  34471-3 0  9996
2 24842  86.4431 264.1121 0012992 206.5345 153.5194 14.47322512454454
IRIDIUM 17              
1 24870U 97034B   25025.29526647  .00001145  00000+0  37551-3 0  9993
2 24870  86.3962 294.8731 0003555 100.4816 259.6782 14.37597392443054
IRIDIUM 920             
1 24871U 97034C   25025.21909540  .00001029  00000+0  31197-3 0  9994
2 24871  86.3954 274.4469 0011003 183.7997 176.3121 14.41302138445982
